      2.10          N: GNSS NAV DATA                        RINEX VERSION / TYPE
fic2rin                                 10/04/2018 00:20:14 PGM / RUN BY / DATE
                                                            END OF HEADER
 8 18 10  3 20  0  0.0-1.173121854663e-04-1.364242052659e-12 0.000000000000e+00
    8.000000000000e+00 4.281250000000e+01 4.363038880939e-09 1.601364122946e+00
    2.207234501839e-06 3.592119202949e-03 3.768131136894e-06 5.153636611938e+03
    3.312000000000e+05-1.117587089539e-08 2.135844040306e-01 2.980232238770e-08
    9.699940059724e-01 3.104375000000e+02-4.135068531116e-01-8.283202171476e-09
    2.082229590363e-10 1.000000000000e+00 2.021000000000e+03 0.000000000000e+00
    2.400000000000e+00 0.000000000000e+00 5.122274160385e-09 8.000000000000e+00
    3.240060000000e+05 4.000000000000e+00
 5 18 10  3 20  0  0.0-1.321081072092e-06 3.410605131648e-13 0.000000000000e+00
    4.300000000000e+01-4.543750000000e+01 4.827701093128e-09 1.930875283106e+00
   -2.294778823853e-06 5.672340048477e-03 1.090392470360e-05 5.153796783447e+03
    3.312000000000e+05-1.713633537292e-07 2.298474397599e+00-4.284083843231e-08
    9.485438262692e-01 1.651562500000e+02 6.957631304471e-01-8.077479316579e-09
    2.346526313668e-10 1.000000000000e+00 2.021000000000e+03 0.000000000000e+00
    2.400000000000e+00 0.000000000000e+00-1.117587089539e-08 4.300000000000e+01
    3.240060000000e+05 4.000000000000e+00
 3 18 10  3 20  0  0.0 1.444285735488e-04 4.774847184308e-12 0.000000000000e+00
    6.200000000000e+01-5.259375000000e+01 4.520188283986e-09-2.052044120903e+00
   -2.702698111534e-06 1.791552174836e-03 1.079775393009e-05 5.153670152664e+03
    3.312000000000e+05 1.080334186554e-07 2.322062852976e+00 1.862645149231e-08
    9.616767607829e-01 1.723125000000e+02 6.607532742489e-01-7.922115702203e-09
    3.182275411687e-10 1.000000000000e+00 2.021000000000e+03 0.000000000000e+00
    2.400000000000e+00 0.000000000000e+00 1.862645149231e-09 6.200000000000e+01
    3.240060000000e+05 4.000000000000e+00
12 18 10  3 20  0  0.0 3.024274483323e-04-2.728484105319e-12 0.000000000000e+00
    6.000000000000e+00 7.115625000000e+01 3.689796551980e-09-2.214631074879e+00
    3.773719072342e-06 7.015064824373e-03 8.957460522652e-06 5.153768423080e+03
    3.312000000000e+05 2.980232238770e-08-7.553865496818e-01-8.940696716309e-08
    9.853848887101e-01 2.214375000000e+02 1.024899947425e+00-7.564243652539e-09
   -6.035965707914e-11 1.000000000000e+00 2.021000000000e+03 0.000000000000e+00
    2.400000000000e+00 0.000000000000e+00-1.257285475731e-08 6.000000000000e+00
    3.240060000000e+05 4.000000000000e+00
 7 18 10  3 20  0  0.0 1.131636090577e-04-6.707523425575e-12 0.000000000000e+00
    4.900000000000e+01 1.718750000000e+00 4.680552106640e-09-1.617898720890e+00
    3.725290298462e-09 1.210035558324e-02 7.614493370056e-06 5.153635900497e+03
    3.312000000000e+05 1.396983861923e-07-1.851046580640e+00-2.142041921616e-07
    9.571971461661e-01 2.301562500000e+02-2.488126901364e+00-7.998547457321e-09
   -4.360895934534e-10 1.000000000000e+00 2.021000000000e+03 0.000000000000e+00
    2.400000000000e+00 0.000000000000e+00-1.117587089539e-08 4.900000000000e+01
    3.240060000000e+05 4.000000000000e+00
10 18 10  3 20  0  0.0 1.775715500116e-04-2.955857780762e-12 0.000000000000e+00
    3.100000000000e+01-4.312500000000e+01 4.465185992919e-09-2.947380433128e+00
   -2.160668373108e-06 3.826787346043e-03 1.154281198978e-05 5.153666633606e+03
    3.312000000000e+05-6.519258022308e-08 2.318685526651e+00-9.313225746155e-09
    9.617415461100e-01 1.595625000000e+02-2.811410436815e+00-7.822825852097e-09
    3.428714248282e-10 1.000000000000e+00 2.021000000000e+03 0.000000000000e+00
    2.400000000000e+00 0.000000000000e+00 1.862645149231e-09 3.100000000000e+01
    3.240060000000e+05 4.000000000000e+00
 9 18 10  3 20  0  0.0 5.028117448092e-04-2.387423592154e-12 0.000000000000e+00
    4.100000000000e+01 2.946875000000e+01 4.981278918833e-09 1.663897717802e+00
    1.411885023117e-06 1.079979352653e-03 7.523223757744e-06 5.153529726028e+03
    3.312000000000e+05-1.490116119385e-08-2.928278944995e+00-1.490116119385e-08
    9.529881801715e-01 2.281250000000e+02 1.723982345367e+00-8.168197381064e-09
    1.578637185147e-10 1.000000000000e+00 2.021000000000e+03 0.000000000000e+00
    2.400000000000e+00 0.000000000000e+00 9.313225746155e-10 4.100000000000e+01
    3.240060000000e+05 4.000000000000e+00
 6 18 10  3 20  0  0.0 3.549167886376e-04-5.456968210638e-12 0.000000000000e+00
    5.900000000000e+01-8.681250000000e+01 4.383039714054e-09-6.893854981188e-01
   -4.747882485390e-06 9.824383305386e-04 5.668029189110e-06 5.153714235306e+03
    3.312000000000e+05-3.352761268616e-08 1.270647616305e+00-3.166496753693e-08
    9.721481952687e-01 2.780000000000e+02-1.142353384381e+00-8.138196131392e-09
    3.571577341961e-13 1.000000000000e+00 2.021000000000e+03 0.000000000000e+00
    2.400000000000e+00 0.000000000000e+00 4.656612873077e-09 5.900000000000e+01
    3.240060000000e+05 4.000000000000e+00
25 18 10  3 20  0  0.0-6.563607603312e-04-5.684341886081e-12 0.000000000000e+00
    3.900000000000e+01 6.928125000000e+01 3.938021177246e-09-2.610870320314e+00
    3.688037395477e-06 7.479181629606e-03 8.838251233101e-06 5.153586576462e+03
    3.312000000000e+05-1.117587089539e-08-8.167527227436e-01-1.676380634308e-08
    9.729041523345e-01 2.158437500000e+02 8.601228792732e-01-7.675676865608e-09
   -5.357366012941e-11 1.000000000000e+00 2.021000000000e+03 0.000000000000e+00
    2.400000000000e+00 0.000000000000e+00 5.587935447693e-09 3.900000000000e+01
    3.240060000000e+05 4.000000000000e+00
14 18 10  3 20  0  0.0-9.695813059807e-05 2.273736754432e-13 0.000000000000e+00
    3.600000000000e+01 2.206250000000e+01 4.963778189857e-09 9.468825642938e-01
    1.180917024612e-06 1.004209939856e-02 7.297843694687e-06 5.153625408173e+03
    3.312000000000e+05-1.434236764908e-07-2.837435124779e+00 6.146728992462e-08
    9.611473278042e-01 2.424375000000e+02-1.942328287347e+00-8.336061516137e-09
    3.285851154604e-11 1.000000000000e+00 2.021000000000e+03 0.000000000000e+00
    2.400000000000e+00 0.000000000000e+00-9.778887033463e-09 3.600000000000e+01
    3.240060000000e+05 4.000000000000e+00
13 18 10  3 20  0  0.0-8.786562830210e-05 9.094947017729e-13 0.000000000000e+00
    5.700000000000e+01 2.809375000000e+01 4.808057417748e-09 2.587194176165e-02
    1.600012183189e-06 3.439512103796e-03 6.863847374916e-06 5.153663457870e+03
    3.312000000000e+05 8.009374141693e-08-2.794662584914e+00-1.303851604462e-08
    9.685728439639e-01 2.491875000000e+02 1.449153705423e+00-8.250700817664e-09
    5.428797559780e-11 1.000000000000e+00 2.021000000000e+03 0.000000000000e+00
    2.400000000000e+00 0.000000000000e+00-1.117587089539e-08 5.700000000000e+01
    3.240060000000e+05 4.000000000000e+00
11 18 10  3 20  0  0.0-7.130135782063e-04 3.183231456205e-12 0.000000000000e+00
    3.900000000000e+01-4.703125000000e+01 5.935961542339e-09-1.626810019076e+00
   -1.996755599976e-06 1.696765481029e-02 2.607703208923e-06 5.153661026001e+03
    3.312000000000e+05-1.322478055954e-07 8.434055394546e-01 4.544854164124e-07
    9.067569932913e-01 3.019062500000e+02 1.823834423053e+00-9.062520347491e-09
    5.393081786361e-11 1.000000000000e+00 2.021000000000e+03 0.000000000000e+00
    2.400000000000e+00 0.000000000000e+00-1.210719347000e-08 3.900000000000e+01
    3.240060000000e+05 4.000000000000e+00
32 18 10  3 20  0  0.0-4.046009853482e-04 1.205080479849e-11 0.000000000000e+00
    4.000000000000e+01 2.456250000000e+01 4.956635035173e-09 1.961150949146e+00
    1.292675733566e-06 2.306759008206e-03 7.297843694687e-06 5.153703359604e+03
    3.312000000000e+05-8.009374141693e-08-2.922688380148e+00-7.450580596924e-09
    9.573231911878e-01 2.375000000000e+02-2.558667554500e+00-8.158554122241e-09
    1.567922453121e-10 1.000000000000e+00 2.021000000000e+03 0.000000000000e+00
    2.400000000000e+00 0.000000000000e+00 4.656612873077e-10 4.000000000000e+01
    3.240060000000e+05 4.000000000000e+00
26 18 10  3 20  0  0.0-1.449603587389e-06 1.148237060988e-11 0.000000000000e+00
    4.500000000000e+01 8.459375000000e+01 4.384468344991e-09 3.137418430437e+00
    4.358589649200e-06 2.974878414534e-03 9.424984455109e-06 5.153735071182e+03
    3.312000000000e+05 3.725290298462e-09-8.410312848545e-01-9.313225746155e-09
    9.543362796624e-01 1.951875000000e+02 5.046908939444e-02-8.050335328780e-09
   -9.857553463812e-11 1.000000000000e+00 2.021000000000e+03 0.000000000000e+00
    2.400000000000e+00 0.000000000000e+00 7.450580596924e-09 4.500000000000e+01
    3.240060000000e+05 4.000000000000e+00
16 18 10  3 20  0  0.0 6.014481186867e-06-1.818989403546e-12 0.000000000000e+00
    3.300000000000e+01 9.156250000000e+01 3.738012846096e-09 2.184663332614e+00
    4.597008228302e-06 1.002191740554e-02 9.806826710701e-06 5.153710699081e+03
    3.312000000000e+05-1.601874828339e-07-7.364819352116e-01-5.401670932770e-08
    9.857964836376e-01 2.047500000000e+02 5.202586493296e-01-7.732464945345e-09
   -5.893102614235e-11 1.000000000000e+00 2.021000000000e+03 0.000000000000e+00
    2.400000000000e+00 0.000000000000e+00-1.071020960808e-08 3.300000000000e+01
    3.240060000000e+05 4.000000000000e+00
30 18 10  3 20  0  0.0 1.535145565867e-05-5.343281372916e-12 0.000000000000e+00
    3.600000000000e+01-6.562500000000e-01 5.029852370683e-09-1.640200153606e+00
   -8.754432201385e-08 3.621948650107e-03 7.692724466324e-06 5.153679035187e+03
    3.312000000000e+05-7.450580596924e-08-1.819353703933e+00-7.264316082001e-08
    9.427392701547e-01 2.215312500000e+02-2.974209140869e+00-8.267130073437e-09
   -4.568047420368e-10 1.000000000000e+00 2.021000000000e+03 0.000000000000e+00
    2.400000000000e+00 0.000000000000e+00 3.725290298462e-09 3.600000000000e+01
    3.240060000000e+05 4.000000000000e+00
